[{"OBJECT_NAME":"STARLINK-35571","OBJECT_ID":"2025-236D","EPOCH":"2026-03-09T19:17:53.238624","MEAN_MOTION":15.30200179,"ECCENTRICITY":0.00014767,"INCLINATION":53.1593,"RA_OF_ASC_NODE":103.2323,"ARG_OF_PERICENTER":88.658,"MEAN_ANOMALY":271.459,"EPHEMERIS_TYPE":0,"CLASSIFICATION_TYPE":"U","NORAD_CAT_ID":66089,"ELEMENT_SET_NO":999,"REV_AT_EPOCH":2296,"BSTAR":0.00063193453,"MEAN_MOTION_DOT":0.00018403,"MEAN_MOTION_DDOT":0},{"OBJECT_NAME":"COSMOS 546","OBJECT_ID":"1973-005A","EPOCH":"2026-03-09T21:40:39.247392","MEAN_MOTION":15.29707303,"ECCENTRICITY":0.00147738,"INCLINATION":50.6327,"RA_OF_ASC_NODE":289.914,"ARG_OF_PERICENTER":261.1516,"MEAN_ANOMALY":98.7778,"EPHEMERIS_TYPE":0,"CLASSIFICATION_TYPE":"U","NORAD_CAT_ID":6350,"ELEMENT_SET_NO":999,"REV_AT_EPOCH":92802,"BSTAR":9.142057e-5,"MEAN_MOTION_DOT":2.316e-5,"MEAN_MOTION_DDOT":0}]
